name,phone,address,postalZip,region,appointmentdate
Yvonne Phua,(833) 925-5254,Ap #437-2699 Sed Street,72001,Ohio,06-20-2023
Vance Pawan,(916) 648-8254,"Ap #460-3504 Lorem, Ave",24169,Montana,03-07-2024
Lila Chande,(725) 517-5611,Ap #592-816 Vitae Rd.,85787,Virginia,08-10-2023
Signe Shaw,1-361-885-3442,"Ap #247-1256 Sed, Rd.",63438,Florida,03-25-2023
Lucian Lambert,1-596-511-3644,401-1079 Senectus Ave,48394,Georgia,12-08-2023
Aspen Bernard,(654) 378-2493,9606 Nullam Avenue,47355,Maine,09-28-2023
Ayanna Williams,(437) 364-7033,569 Dictum Av.,72535,Kentucky,08-20-2023
Melinda Hall,1-429-456-4436,Ap #883-4291 Sed St.,67319,Nebraska,12-19-2023
Armand Proulx,(392) 150-8756,629-1139 Ipsum Ave,36003,Hawaii,01-07-2023
Paki Thomson,1-618-565-9763,888-1043 Tristique Avenue,86070,Alaska,04-13-2023
Martha Harrison,(242) 243-3727,663-6240 Cubilia St.,67735,Arizona,05-26-2023
Kasper Tong,1-134-667-4567,Ap #972-6886 Amet Avenue,25568,Idaho,03-26-2023
Caesar Olson,1-527-757-0187,"288 Lorem, Road",76488,Vermont,05-03-2023
Charde Hu,1-343-311-1643,7620 Quam Rd.,47309,Maine,04-12-2024
Thor Ko,1-373-864-1817,"P.O. Box 343, 5248 Felis Rd.",24921,Alaska,07-23-2023
Zoe Zimmermann,(279) 624-8861,Ap #526-6186 Semper. St.,17051,Massachusetts,04-01-2024
Dieter Wolff,1-221-814-1156,595-5688 Vivamus St.,58933,Arkansas,01-08-2023
Amanda Dupuis,1-491-155-8417,Ap #325-5057 Nunc Rd.,23114,Arkansas,02-18-2024
Macy Cole,1-369-674-8115,"P.O. Box 757, 760 Quis Ave",56363,Texas,12-28-2023
Ulysses Chan,(675) 830-4206,"P.O. Box 928, 771 Nisl St.",12575,Georgia,03-05-2023
Elton Wong,1-524-681-7926,"8429 Tellus, Rd.",60456,Louisiana,01-29-2024
Fiona Jin,1-260-516-3136,Ap #308-2235 Euismod Rd.,46480,Oklahoma,05-08-2023
Giacomo Aggarwal,(727) 816-8952,838-4958 Ligula Ave,79312,Maryland,04-28-2024
Cora James,1-472-229-1513,Ap #839-4935 Eu Rd.,37422,Maryland,01-17-2024
Jakeem Perlmann,(693) 655-1417,Ap #698-7616 Luctus. Avenue,36438,Missouri,08-31-2023
Chaim Cook,(735) 364-6447,692-2818 Suspendisse Rd.,26914,Utah,03-09-2024
Yardley Zhong,1-932-923-5123,651-4020 Pulvinar St.,64783,Missouri,03-02-2024
Martena Foster,1-940-811-1111,Ap #197-3988 Feugiat Street,98962,Kentucky,02-10-2024
Josephine Colling,(900) 555-1559,700-7438 In Rd.,86353,Oklahoma,01-10-2023
MacKenzie Veena,(794) 729-3525,5165 Orci St.,86789,Alabama,06-18-2023
Amena Persaud,1-538-472-2054,Ap #510-7600 Sed Ave,31871,Vermont,03-23-2024
Kai Png,(961) 469-6734,Ap #109-1398 Metus. Avenue,27518,Oregon,06-06-2023
Tanner Scott,(311) 743-5734,159-1258 Eu St.,83699,Washington,02-09-2024
Constance Sanders,1-203-400-4540,928-5668 Pede. Avenue,24800,Wisconsin,11-10-2023
Julian Leong,(928) 720-6784,482-3671 Sed Road,35994,Montana,04-30-2024
Leilani Rajagopal,1-236-222-5725,"975-4902 Eu, Av.",64231,Nebraska,04-12-2024
Cairo Watson,(578) 915-7277,"444-9478 Magna, St.",62547,Wyoming,01-12-2023
Barrett Rojas,(362) 817-6553,422-3635 Fusce Rd.,75117,California,05-28-2023
Perry Lalit,(824) 773-7838,2088 Aliquet Av.,59631,Connecticut,07-05-2023
Samson Shu,1-688-788-0024,957-2447 Quis Street,60633,Montana,02-02-2023
Raya Burns,(562) 484-0176,1730 Porttitor Av.,87447,Missouri,01-09-2024
Kirsten Boyd,(553) 817-6294,Ap #747-7455 Ornare Street,55879,Indiana,07-30-2023
Unity Nelson,1-522-941-2146,716-2905 Eleifend Av.,99811,Virginia,03-23-2024
MacKensie Sharma,(238) 635-5710,7924 Arcu. Rd.,36628,Nevada,03-30-2023
Adrian Snyder,1-823-108-5433,542-7796 Non Avenue,42625,Connecticut,05-17-2023
Raya Bhat,1-224-455-7332,Ap #333-4206 Integer St.,19733,Connecticut,07-24-2023
Karleigh Carter,1-392-114-2321,946-515 Elit. Ave,28782,Kentucky,06-06-2023
Kim Sehgal,(494) 262-1158,Ap #504-7735 Erat Road,81337,Louisiana,05-18-2023
Harper Morgan,(527) 712-9770,"Ap #138-6621 Eget, Av.",30430,Massachusetts,03-03-2023
Salvador Kraus,1-824-567-4493,"P.O. Box 257, 8322 Laoreet, Ave",85751,Louisiana,03-21-2024
Hadassah Bell,(458) 831-3065,319-6988 Metus Road,64164,California,11-27-2023
Riley Leclerc,(276) 953-4325,695-5436 Natoque Road,36438,Arizona,04-01-2024
Jackson Lee,(615) 844-9361,437-5078 Imperdiet Ave,39757,Maryland,12-08-2023
Andrew Cheng,(454) 217-3522,Ap #786-6670 Consequat St.,93029,Montana,04-09-2024
Shana Sehgal,(116) 741-9183,Ap #384-4913 In Av.,54134,Iowa,09-14-2023
Rahim Schumann,1-271-354-6116,238-563 Orci St.,24408,Idaho,05-11-2023
Jolie White,1-104-466-2263,778-5874 Suspendisse Street,57437,Delaware,08-11-2023
Zachery Legault,1-824-551-4145,7748 Arcu Rd.,52158,Kentucky,09-25-2023
Ralph Scholz,1-991-474-4515,257-5701 Suscipit St.,26871,Wisconsin,12-02-2023
Hayden Perry,1-718-355-6530,753-262 Posuere St.,79257,Nevada,10-22-2023
Guy Kelly,(914) 556-7162,Ap #776-1885 Dictum Rd.,34975,Missouri,01-31-2024
Hayley Ranga,1-424-527-4843,906-1257 Sed Rd.,72486,Kansas,09-19-2023
Odette Lao,1-845-924-9164,583-7447 Ipsum. St.,75373,Florida,04-29-2024
Wesley Chauhan,1-235-659-4332,7664 Magna. Avenue,77375,Montana,12-24-2023
Indira Sen,(913) 836-5519,"Ap #905-4968 Lorem, Avenue",41543,Pennsylvania,12-13-2023
Myles Murphy,1-341-313-8267,"Ap #714-5830 Et, Rd.",53214,Illinois,08-30-2023
Demetria Leng,(246) 732-1095,690-1896 Parturient Avenue,63756,Virginia,11-06-2023
Salvador Matthews,(881) 676-5067,118-8925 Consectetuer Ave,25206,Connecticut,09-02-2023
Stacy Martin,1-856-385-7468,Ap #855-149 At Road,33515,Illinois,03-13-2023
Georgia Hamilton,(151) 289-8565,734-4204 Sit Road,69465,Iowa,08-15-2023
Neve Bennett,1-628-417-8102,"P.O. Box 296, 6610 In Av.",56623,Missouri,08-02-2023
Hedley Huang,(353) 638-6864,9014 Scelerisque St.,23422,Texas,01-24-2024
Luke Pok,(385) 710-2162,9836 Faucibus St.,72781,Tennessee,04-24-2024
Dolan Charan,1-855-453-4435,1261 Erat. Ave,45725,Idaho,01-03-2024
Adena Warren,(378) 177-6146,"Ap #778-7974 Ac, Rd.",19564,Alabama,11-23-2023
Iona Punj,(288) 623-4670,621-2072 Aliquam Rd.,33276,Utah,09-20-2023
Florence Mitchell,(436) 937-4263,684-7603 Ipsum Ave,75834,Nevada,08-05-2023
Elton Lopez,(948) 464-0775,"Ap #561-5730 Amet, Avenue",27379,Utah,04-06-2023
Jin Smith,1-314-638-6883,"P.O. Box 755, 4875 Per Rd.",63392,Wyoming,03-06-2024
Xander Turner,1-725-727-6588,5210 Eu Av.,31019,Florida,05-16-2023
Kelly Ro√ümann,1-684-707-5241,599-5893 Fermentum Ave,45600,Kentucky,04-06-2023
Dennis Sara,(417) 774-9342,"4030 Orci, Av.",66399,Oregon,04-26-2024
Liberty Seet,1-660-627-9202,"P.O. Box 808, 5336 Ut St.",99535,Minnesota,02-06-2023
Uma Nigam,(848) 929-2260,1135 Gravida St.,18753,Connecticut,05-22-2023
Zephania Elliott,(798) 179-4477,"P.O. Box 730, 4798 Mattis Rd.",84216,Kansas,12-15-2023
Maggie Perez,(589) 883-7288,"P.O. Box 233, 9773 In Avenue",22761,Iowa,06-09-2023
McKenzie Allen,1-331-828-8732,Ap #927-5792 Dui Ave,92702,Maryland,02-27-2024
Abbot Lehmann,(987) 675-6128,609 Ac St.,84235,Connecticut,12-18-2023
Indigo Mitchell,(468) 482-3138,435-7980 Scelerisque Avenue,45244,Colorado,01-09-2023
Cameron Morgan,(957) 495-2771,"P.O. Box 480, 4355 Massa. St.",44194,Vermont,09-23-2023
Molly Guzman,(401) 519-9113,"901-814 Tortor, Ave",63366,Ohio,01-09-2023
Stuart Sethi,1-114-866-2401,"Ap #942-781 A, Rd.",91231,Alaska,06-24-2023
Abraham Hunter,(118) 427-0866,"790-5352 Quis, Rd.",70633,Maryland,11-27-2023
Leigh Zheng,1-408-351-8932,394-367 Augue St.,85248,Massachusetts,11-30-2023
Brian Xia,(796) 563-1184,"Ap #114-9734 Tempor, Rd.",45289,Pennsylvania,05-11-2023
Lance Parker,(405) 279-9472,2492 Posuere St.,25434,Arkansas,10-23-2023
Dai Tucker,(357) 346-3055,Ap #193-6352 Lorem St.,22745,Nebraska,04-24-2023
Tamekah Joshi,1-887-648-9784,"Ap #543-7026 Sem, St.",46400,Arizona,02-07-2024
Cyrus Lata,1-295-475-7687,"9626 A, Street",43141,Nebraska,02-07-2023
Anthony Mills,1-885-963-5745,Ap #544-242 Vulputate St.,76027,Idaho,03-09-2023
